[{"OBJECT_NAME":"STARLINK-1434","OBJECT_ID":"2020-035BH","EPOCH":"2026-03-09T05:47:35.213856","MEAN_MOTION":15.26724568,"ECCENTRICITY":0.00053438,"INCLINATION":53.0547,"RA_OF_ASC_NODE":22.1128,"ARG_OF_PERICENTER":88.04,"MEAN_ANOMALY":272.121,"EPHEMERIS_TYPE":0,"CLASSIFICATION_TYPE":"U","NORAD_CAT_ID":45712,"ELEMENT_SET_NO":999,"REV_AT_EPOCH":31932,"BSTAR":0.0020295208,"MEAN_MOTION_DOT":0.00054112,"MEAN_MOTION_DDOT":0},{"OBJECT_NAME":"STARLINK-34038","OBJECT_ID":"2025-095X","EPOCH":"2026-03-09T08:06:11.425536","MEAN_MOTION":15.27594626,"ECCENTRICITY":7.303e-5,"INCLINATION":42.9999,"RA_OF_ASC_NODE":178.2312,"ARG_OF_PERICENTER":258.9451,"MEAN_ANOMALY":101.1318,"EPHEMERIS_TYPE":0,"CLASSIFICATION_TYPE":"U","NORAD_CAT_ID":63911,"ELEMENT_SET_NO":999,"REV_AT_EPOCH":4772,"BSTAR":0.00082242208,"MEAN_MOTION_DOT":0.00022448,"MEAN_MOTION_DDOT":0}]
